0 FLYING LAPTOP
1 42831U 17042G   21004.57168982 -.00000130  00000-0 -77894-5 0  9991
2 42831  97.4922 242.7407 0013514 340.6147  19.4550 14.91218497189264
0 OBJECT H
1 42832U 17042H   21004.57890820  .00000172  00000-0  22470-4 0  9998
2 42832  97.4934 243.0375 0013224 338.0439  22.0212 14.91404668189283
0 OBJECT J
1 42833U 17042J   21004.60437639  .00000356  00000-0  40865-4 0  9990
2 42833  97.4930 243.1507 0013199 338.0124  22.0527 14.91466152189308
0 OBJECT K
1 42834U 17042K   21004.62451240  .00000187  00000-0  23954-4 0  9999
2 42834  97.4935 243.1944 0012978 341.9563  18.1194 14.91440501189297
0 WNISAT 1R
1 42835U 17042L   21004.60112144  .00000315  00000-0  36914-4 0  9998
2 42835  97.4915 242.8683 0012715 338.9358  21.1336 14.91309189189286
0 OBJECT M
1 42836U 17042M   21004.61163006  .00000326  00000-0  37844-4 0  9998
2 42836  97.4932 243.1152 0012741 341.9322  18.1443 14.91404841189304
0 LEMUR 2 GREENBERG
1 42837U 17042N   21004.57547499  .00000263  00000-0  30875-4 0  9993
2 42837  97.4980 244.5008 0012483 334.5691  25.4913 14.92334856189372
0 LEMUR 2 ANDIS
1 42838U 17042P   21004.57156079  .00000284  00000-0  32969-4 0  9993
2 42838  97.4974 244.4927 0012474 334.0704  25.9889 14.92321186189374
0 LEMUR 2 MONSON
1 42839U 17042Q   21004.59051527  .00000501  00000-0  54463-4 0  9993
2 42839  97.4984 244.3724 0012182 334.1795  25.8815 14.92136679189365
0 LEMUR 2 FURIAUS
1 42840U 17042R   21004.61640673  .00000452  00000-0  49495-4 0  9998
2 42840  97.4994 244.6332 0012536 333.9079  26.1507 14.92229907189371
0 LEMUR 2 PETERG
1 42841U 17042S   21004.62909635  .00000446  00000-0  48469-4 0  9999
2 42841  97.5013 245.1875 0011979 330.8566  29.1984 14.92591425189414
0 LEMUR 2 DEMBITZ
1 42842U 17042T   21004.42061581  .00000599  00000-0  63345-4 0  9996
2 42842  97.5001 244.9348 0012071 332.4367  27.6212 14.92572284189380
0 OBJECT U
1 42843U 17042U   21004.65559917  .00000172  00000-0  22292-4 0  9990
2 42843  97.4933 244.0026 0011938 333.5440  26.5168 14.91768570189363
0 NANOACE
1 42844U 17042V   21004.63311102  .00000254  00000-0  29916-4 0  9992
2 42844  97.4950 244.6726 0011534 326.1724  33.8759 14.92471880189409
0 LEMUR 2 ZACHARY
1 42845U 17042W   21004.62401632  .00000572  00000-0  60335-4 0  9993
2 42845  97.4924 244.6454 0012321 334.2305  25.8300 14.92861766189431
0 CORVUS BC2
1 42846U 17042X   21004.61848710  .00000295  00000-0  34136-4 0  9997
2 42846  97.4953 244.7685 0008896 334.9790  25.0998 14.92206710189402
0 CORVUS BC1
1 42847U 17042Y   21004.66752732  .00000408  00000-0  45086-4 0  9993
2 42847  97.4957 245.0220 0008513 334.3084  25.7712 14.92308496189418
0 OBJECT Z
1 42848U 17042Z   21004.63326802  .00000102  00000-0  15024-4 0  9996
2 42848  97.4968 245.6053 0007345 333.5066  26.5778 14.92596743189453
0 OBJECT AA
1 42849U 17042AA  21004.62358089  .00000275  00000-0  31895-4 0  9993
2 42849  97.4969 245.6231 0007406 335.8221  24.2650 14.92607914189412
0 FLOCK 2K 03
1 42850U 17042AB  21004.58432182  .00005328  00000-0  12075-3 0  9999
2 42850  96.8653 227.0136 0008348 329.1558  30.9200 15.43451532195108
0 FLOCK 2K 04
1 42851U 17042AC  21004.59984556  .00004418  00000-0  10020-3 0  9995
2 42851  96.8643 227.5119 0007982 331.2321  28.8487 15.43524260195145
0 FLOCK 2K 01
1 42852U 17042AD  21004.57406820  .00010730  00000-0  22806-3 0  9996
2 42852  96.8628 227.1339 0007271 330.1286  29.9548 15.45130358195118
0 FLOCK 2K 02
1 42853U 17042AE  21004.53858556  .00007669  00000-0  17671-3 0  9991
2 42853  96.8654 223.9898 0008544 340.1499  19.9417 15.42813330194885
0 FLOCK 2K 47
1 42854U 17042AF  21004.56191598  .00008539  00000-0  18805-3 0  9998
2 42854  96.8651 227.0415 0007568 330.1676  29.9142 15.44139607195106
0 FLOCK 2K 48
1 42855U 17042AG  21004.56373091  .00008838  00000-0  18204-3 0  9994
2 42855  96.8637 227.8585 0006913 328.8814  31.2027 15.46109731195169
0 FLOCK 2K 45
1 42856U 17042AH  21004.58311424  .00005587  00000-0  12642-3 0  9997
2 42856  96.8651 226.9876 0007610 327.6892  32.3890 15.43482933195106
0 FLOCK 2K 24
1 42857U 17042AJ  21004.61180010  .00010156  00000-0  20177-3 0  9997
2 42857  96.8624 228.4080 0006643 321.3433  38.7342 15.47127174195219
0 FLOCK 2K 46
1 42858U 17042AK  21004.58412527  .00009093  00000-0  18329-3 0  9999
2 42858  96.8632 228.4339 0006757 324.2624  35.8174 15.46733784195205
0 FLOCK 2K 23
1 42859U 17042AL  21004.55802743  .00008738  00000-0  18973-3 0  9990
2 42859  96.8647 227.2532 0007512 329.5941  30.4872 15.44553076195112
0 FLOCK 2K 21
1 42860U 17042AM  21004.58037860  .00005622  00000-0  12727-3 0  9995
2 42860  96.8667 227.1049 0007894 328.7979  31.2800 15.43465718195106
0 FLOCK 2K 22
1 42861U 17042AN  21004.60799477  .00013559  00000-0  24448-3 0  9999
2 42861  96.8657 230.4374 0006275 320.0026  40.0764 15.49854602195336
0 FLOCK 2K 07
1 42862U 17042AP  21004.57386006  .00005817  00000-0  13171-3 0  9995
2 42862  96.8665 227.1579 0008115 328.7100  31.3665 15.43444410195114
0 FLOCK 2K 08
1 42863U 17042AQ  21004.57171153  .00009239  00000-0  19596-3 0  9990
2 42863  96.8642 227.4582 0007647 329.3665  30.7137 15.45228299195135
0 FLOCK 2K 05
1 42864U 17042AR  21004.57511669  .00008195  00000-0  15974-3 0  9997
2 42864  96.8629 229.2855 0006743 322.6270  37.4512 15.47742289195265
0 FLOCK 2K 40
1 42865U 17042AS  21004.57790287  .00005740  00000-0  12997-3 0  9998
2 42865  96.8662 227.1462 0008080 330.0402  30.0384 15.43448380195100
0 FLOCK 2K 39
1 42866U 17042AT  21004.57211785  .00005804  00000-0  13136-3 0  9997
2 42866  96.8666 227.1229 0008029 329.8379  30.2407 15.43457031195109
0 FLOCK 2K 37
1 42867U 17042AU  21004.56905814  .00004990  00000-0  11315-3 0  9992
2 42867  96.8658 227.1004 0008104 330.1957  29.8830 15.43469098195103
0 FLOCK 2K 38
1 42868U 17042AV  21004.60235507  .00008260  00000-0  17002-3 0  9996
2 42868  96.8634 228.1232 0007200 323.9114  36.1650 15.46147485195188
0 FLOCK 2K 31
1 42869U 17042AW  21004.56107743  .00005661  00000-0  12811-3 0  9997
2 42869  96.8656 227.0697 0007814 324.6383  35.4347 15.43470778195101
0 FLOCK 2K 32
1 42870U 17042AX  21004.55926344  .00005634  00000-0  12757-3 0  9993
2 42870  96.8659 227.0715 0007693 326.6928  33.3836 15.43456794195101
0 FLOCK 2K 29
1 42871U 17042AY  21004.55652324  .00005382  00000-0  12188-3 0  9996
2 42871  96.8657 227.1082 0007939 324.4767  35.5952 15.43475169195108
0 FLOCK 2K 30
1 42872U 17042AZ  21004.55344725  .00005474  00000-0  12379-3 0  9994
2 42872  96.8669 227.1677 0008019 325.2388  34.8336 15.43504414195092
0 FLOCK 2K 44
1 42873U 17042BA  21004.61361857  .00004837  00000-0  10954-3 0  9996
2 42873  96.8655 227.1279 0008360 311.7679  48.2855 15.43516324195119
0 FLOCK 2K 43
1 42874U 17042BB  21004.59176873  .00002083  00000-0  58154-4 0  9992
2 42874  96.8681 221.7901 0011139 336.5517  23.5219 15.37703850194737
0 FLOCK 2K 41
1 42875U 17042BC  21004.72055642  .00004489  00000-0  10159-3 0  9992
2 42875  96.8666 227.3810 0008762 313.3849  46.6670 15.43572778195133
0 FLOCK 2K 36
1 42876U 17042BD  21004.56333345  .00009807  00000-0  19469-3 0  9996
2 42876  96.8624 228.5790 0007734 311.2287  48.8297 15.47150373195214
0 FLOCK 2K 35
1 42877U 17042BE  21004.54668815  .00005452  00000-0  12323-3 0  9992
2 42877  96.8663 227.1765 0008735 314.1202  45.9328 15.43519050195104
0 FLOCK 2K 34
1 42878U 17042BF  21004.60629238  .00010173  00000-0  20773-3 0  9990
2 42878  96.8634 228.1143 0007786 313.1827  46.8772 15.46317473195180
0 FLOCK 2K 33
1 42879U 17042BG  21004.61716663  .00013276  00000-0  23662-3 0  9998
2 42879  96.8624 231.0612 0006817 302.3118  57.7474 15.50183754195392
0 FLOCK 2K 28
1 42880U 17042BH  21004.59249725  .00006286  00000-0  15567-3 0  9995
2 42880  96.8662 222.6589 0010184 333.2693  26.8028 15.40688522194795
0 LEMUR 2 ARTFISCHER
1 42881U 17042BJ  21004.59838087  .00006273  00000-0  14354-3 0  9990
2 42881  96.8626 226.3599 0009461 321.3394  38.7177 15.43085434195042
0 FLOCK 2K 27
1 42882U 17042BK  21004.60732924  .00010963  00000-0  21343-3 0  9993
2 42882  96.8613 228.8834 0007723 310.1332  49.9242 15.47688585195244
0 FLOCK 2K 26
1 42883U 17042BL  21004.61087045  .00011033  00000-0  21932-3 0  9995
2 42883  96.8658 228.7061 0007919 309.5526  50.5025 15.47078579195220
0 FLOCK 2K 25
1 42884U 17042BM  21004.61216726  .00005411  00000-0  12258-3 0  9990
2 42884  96.8657 227.1773 0008698 315.2554  44.7993 15.43453846195110
0 FLOCK 2K 20
1 42885U 17042BN  21004.58888478  .00009290  00000-0  18889-3 0  9991
2 42885  96.8660 228.3842 0008163 310.3970  49.6568 15.46463054195195
0 FLOCK 2K 19
1 42886U 17042BP  21004.60764072  .00005764  00000-0  13026-3 0  9998
2 42886  96.8662 227.2415 0009114 314.3252  45.7249 15.43496969195119
0 FLOCK 2K 18
1 42887U 17042BQ  21004.53928693  .00005333  00000-0  12086-3 0  9999
2 42887  96.8665 227.1829 0009230 312.8681  47.1792 15.43442369195102
0 FLOCK 2K 17
1 42888U 17042BR  21004.56888067  .00010128  00000-0  20142-3 0  9993
2 42888  96.8620 228.6036 0007758 307.3518  52.7026 15.47089737195226
0 FLOCK 2K 16
1 42889U 17042BS  21004.59853222  .00007652  00000-0  17061-3 0  9996
2 42889  96.8670 227.3050 0008651 313.2580  46.7947 15.43797559195119
0 FLOCK 2K 15
1 42890U 17042BT  21004.59900275  .00005882  00000-0  13332-3 0  9999
2 42890  96.8668 227.3726 0009263 311.6572  48.3883 15.43397333195114
0 FLOCK 2K 13
1 42891U 17042BU  21004.60532847  .00011427  00000-0  21601-3 0  9998
2 42891  96.8676 229.7289 0007428 301.5133  58.5393 15.48529876195276
0 FLOCK 2K 14
1 42892U 17042BV  21004.57452914  .00009471  00000-0  19275-3 0  9991
2 42892  96.8656 228.4307 0008077 307.9540  52.0981 15.46432540195209
0 FLOCK 2K 12
1 42893U 17042BW  21004.59278478  .00005488  00000-0  12453-3 0  9990
2 42893  96.8662 227.2931 0009114 312.9576  47.0908 15.43396212195110
0 FLOCK 2K 11
1 42894U 17042BX  21004.61340239  .00008942  00000-0  19409-3 0  9995
2 42894  96.8651 227.3546 0008621 309.3454  50.7032 15.44549534195127
